INMARSAT 4-F2 (SOUTHPA*)
1 28899U 05044A   26154.94643249 -.00000250  00000+0  00000+0 0  9994
2 28899   5.0778  43.7191 0003276  29.7378 303.1482  1.00270607 75381
GSAT-8 (GAGAN/PRN 127)  
1 37605U 11022A   26155.76447574  .00000096  00000+0  00000+0 0  9993
2 37605   2.0986  81.9748 0002224 220.1674 281.3581  1.00272277 53090
LUCH 5A (SDCM/PRN 140)  
1 37951U 11074B   26155.59350058 -.00000040  00000+0  00000+0 0  9995
2 37951   8.7219  73.9927 0002508   8.5987 191.1306  1.00269919 52929
SES-5 (EGNOS/PRN 136)   
1 38652U 12036A   26155.63738852  .00000046  00000+0  00000+0 0  9995
2 38652   0.0495 310.1841 0002151 119.8986  57.4388  1.00271288 44331
GSAT-10 (GAGAN/PRN 128) 
1 38779U 12051B   26155.70725213 -.00000153  00000+0  00000+0 0  9997
2 38779   0.0227 261.7006 0008076 186.3350 142.7533  1.00272375 49977
LUCH 5B (SDCM/PRN 125)  
1 38977U 12061A   26155.70071411 -.00000128  00000+0  00000+0 0  9994
2 38977  10.4545  50.0042 0001576 137.7410 301.3338  1.00274312 49484
ASTRA 5B (EGNOS/PRN 123)
1 39617U 14011B   26155.73886234  .00000149  00000+0  00000+0 0  9995
2 39617   0.0622 312.5192 0002269 114.7078 115.4696  1.00273065 44541
LUCH 5V (SDCM/PRN 141)  
1 39727U 14023A   26155.82719608 -.00000257  00000+0  00000+0 0  9991
2 39727   5.1030  69.8739 0002797  26.8345 189.0809  1.00269112 44234
GSAT-15 (GAGAN/PRN 139) 
1 41028U 15065A   26155.71989234 -.00000246  00000+0  00000+0 0  9995
2 41028   0.0455 115.8646 0004225 318.8747 171.0964  1.00271140 38671
EUTELSAT 117 WEST B (W*)
1 41589U 16038B   26155.61598653  .00000001  00000+0  00000+0 0  9996
2 41589   0.0101 156.0147 0000365 186.2574  15.5441  1.00267792 36533
SES-15 (WAAS/PRN 133)   
1 42709U 17026A   26155.62084726  .00000072  00000+0  00000+0 0  9999
2 42709   0.0208 330.5745 0001119  62.2958 314.5488  1.00270523  7308
QZS-2 (QZSS/PRN 194)    
1 42738U 17028A   26154.60922439 -.00000158  00000+0  00000+0 0  9998
2 42738  39.4485 243.3546 0759590 269.1264 100.0088  1.00287507  7498
QZS-3 (QZSS/PRN 199)    
1 42917U 17048A   26155.66148397 -.00000336  00000+0  00000+0 0  9997
2 42917   0.0605 194.2888 0002864 248.8650 175.1237  1.00272114 32132
QZS-4 (QZSS/PRN 195)    
1 42965U 17062A   26155.37249060 -.00000321  00000+0  00000+0 0  9997
2 42965  40.1160 343.6465 0744830 271.5298 269.7386  1.00255482 31676
BEIDOU-3 G1 (PRN 130)   
1 43683U 18085A   26155.81066075 -.00000097  00000+0  00000+0 0  9993
2 43683   2.8370  97.7197 0008567 345.6614 261.6920  1.00272094 27933
EUTELSAT 5 WEST B (EGN*)
1 44624U 19067A   26155.63539519 -.00000030  00000+0  00000+0 0  9995
2 44624   0.0655 338.4892 0003355  95.7307  42.6086  1.00272089 24317
BEIDOU-3 G2 (PRN 144)   
1 45344U 20017A   26155.79480067 -.00000129  00000+0  00000+0 0  9991
2 45344   2.8392  47.1642 0002889  25.2494 186.9684  1.00270930 23136
BEIDOU-3 G3 (PRN 143)   
1 45807U 20040A   26155.80086736 -.00000342  00000+0  00000+0 0  9995
2 45807   2.4170  67.4236 0003082 336.0125 248.6846  1.00274381 21941
GALAXY 30 (WAAS/PRN 135)
1 46114U 20056C   26155.61945726  .00000049  00000+0  00000+0 0  9999
2 46114   0.0178 328.6120 0002458 101.8903 280.5504  1.00272562 21166
QZS-1R (QZSS/PRN 196)   
1 49336U 21096A   26155.72839058 -.00000245  00000+0  00000+0 0  9994
2 49336  37.4366  79.7685 0754126 271.5404 298.7927  1.00260525 16884
QZS-6 (QZSS/PRN 200)    
1 62876U 25023A   26155.17525036 -.00000220  00000+0  00000+0 0  9992
2 62876   0.0196  27.3438 0002593  49.4967 329.3335  1.00268643  4813
